{"type": "FeatureCollection", "features": [ {"type": "Feature", "properties": {"norad_id": 40701, "name": "GAOFEN-8", "group": "resource", "lat": -7.091737648780592, "lon": -178.29857372463113, "alt_km": 453.08222233563356, "timestamp": "2025-12-27T20:30:58.944691+00:00", "meta": {"OBJECT_NAME": "GAOFEN-8", "OBJECT_ID": "2015-030A", "EPOCH": "2025-12-27T12:44:44.437632", "MEAN_MOTION": 15.39107662, "ECCENTRICITY": 0.0011558, "INCLINATION": 97.69, "RA_OF_ASC_NODE": 180.3985, "ARG_OF_PERICENTER": 87.15, "MEAN_ANOMALY": 273.1067, "EPHEMERIS_TYPE": 0, "CLASSIFICATION_TYPE": "U", "NORAD_CAT_ID": 40701, "ELEMENT_SET_NO": 999, "REV_AT_EPOCH": 58498, "BSTAR": 0.000731, "MEAN_MOTION_DOT": 0.00028372, "MEAN_MOTION_DDOT": 0}, "tle": {"line1": "1 40701U 15030A   25361.53106988  .00028372  00000+0  73100-3 0  9993", "line2": "2 40701  97.6900 180.3985 0011558  87.1500 273.1067 15.39107662584980"}}, "geometry": {"type": "Point", "coordinates": [-178.29857372463113, -7.091737648780592]}}, {"type": "Feature", "properties": {"norad_id": 40718, "name": "CARBONITE 1 (CBNT-1)", "group": "resource", "lat": 58.850325759905154, "lon": 15.066182239483418, "alt_km": 604.2660938367007, "timestamp": "2025-12-27T20:30:58.944701+00:00", "meta": {"OBJECT_NAME": "CARBONITE 1 (CBNT-1)", "OBJECT_ID": "2015-032D", "EPOCH": "2025-12-27T11:52:43.349952", "MEAN_MOTION": 14.82811972, "ECCENTRICITY": 0.0015429, "INCLINATION": 97.6407, "RA_OF_ASC_NODE": 181.8898, "ARG_OF_PERICENTER": 134.4506, "MEAN_ANOMALY": 225.7973, "EPHEMERIS_TYPE": 0, "CLASSIFICATION_TYPE": "U", "NORAD_CAT_ID": 40718, "ELEMENT_SET_NO": 999, "REV_AT_EPOCH": 56389, "BSTAR": 0.00014434, "MEAN_MOTION_DOT": 1.119e-05, "MEAN_MOTION_DDOT": 0}, "tle": {"line1": "1 40718U 15032D   25361.49494618  .00001119  00000+0  14434-3 0  9993", "line2": "2 40718  97.6407 181.8898 0015429 134.4506 225.7973 14.82811972563891"}}, "geometry": {"type": "Point", "coordinates": [15.066182239483418, 58.850325759905154]}}, {"type": "Feature", "properties": {"norad_id": 40878, "name": "YAOGAN-27", "group": "resource", "lat": 57.19330812617641, "lon": -173.15328758324551, "alt_km": 1197.7531405770405, "timestamp": "2025-12-27T20:30:58.944711+00:00", "meta": {"OBJECT_NAME": "YAOGAN-27", "OBJECT_ID": "2015-040A", "EPOCH": "2025-12-27T12:36:11.656224", "MEAN_MOTION": 13.16059662, "ECCENTRICITY": 0.0007601, "INCLINATION": 100.1026, "RA_OF_ASC_NODE": 350.4769, "ARG_OF_PERICENTER": 250.2393, "MEAN_ANOMALY": 109.7901, "EPHEMERIS_TYPE": 0, "CLASSIFICATION_TYPE": "U", "NORAD_CAT_ID": 40878, "ELEMENT_SET_NO": 999, "REV_AT_EPOCH": 49508, "BSTAR": -0.0010373, "MEAN_MOTION_DOT": -4.36e-06, "MEAN_MOTION_DDOT": 0}, "tle": {"line1": "1 40878U 15040A   25361.52513491 -.00000436  00000+0 -10373-2 0  9994", "line2": "2 40878 100.1026 350.4769 0007601 250.2393 109.7901 13.16059662495083"}}, "geometry": {"type": "Point", "coordinates": [-173.15328758324551, 57.19330812617641]}}, {"type": "Feature", "properties": {"norad_id": 40894, "name": "GAOFEN-9 01", "group": "resource", "lat": 22.592388302390805, "lon": 36.94923056278391, "alt_km": 606.1960707424932, "timestamp": "2025-12-27T20:30:58.944722+00:00", "meta": {"OBJECT_NAME": "GAOFEN-9 01", "OBJECT_ID": "2015-047A", "EPOCH": "2025-12-27T12:18:52.921728", "MEAN_MOTION": 14.82458943, "ECCENTRICITY": 0.0027178, "INCLINATION": 97.6524, "RA_OF_ASC_NODE": 39.8294, "ARG_OF_PERICENTER": 346.3061, "MEAN_ANOMALY": 13.7413, "EPHEMERIS_TYPE": 0, "CLASSIFICATION_TYPE": "U", "NORAD_CAT_ID": 40894, "ELEMENT_SET_NO": 999, "REV_AT_EPOCH": 55475, "BSTAR": 0.0001693, "MEAN_MOTION_DOT": 1.315e-05, "MEAN_MOTION_DDOT": 0}, "tle": {"line1": "1 40894U 15047A   25361.51311252  .00001315  00000+0  16930-3 0  9990", "line2": "2 40894  97.6524  39.8294 0027178 346.3061  13.7413 14.82458943554756"}}, "geometry": {"type": "Point", "coordinates": [36.94923056278391, 22.592388302390805]}}, {"type": "Feature", "properties": {"norad_id": 41026, "name": "YAOGAN-28", "group": "resource", "lat": -61.83539523136486, "lon": 153.03955538413973, "alt_km": 505.9145145288303, "timestamp": "2025-12-27T20:30:58.944735+00:00", "meta": {"OBJECT_NAME": "YAOGAN-28", "OBJECT_ID": "2015-064A", "EPOCH": "2025-12-27T12:54:55.010880", "MEAN_MOTION": 15.24591011, "ECCENTRICITY": 0.0012625, "INCLINATION": 97.2813, "RA_OF_ASC_NODE": 138.9152, "ARG_OF_PERICENTER": 79.1478, "MEAN_ANOMALY": 281.118, "EPHEMERIS_TYPE": 0, "CLASSIFICATION_TYPE": "U", "NORAD_CAT_ID": 41026, "ELEMENT_SET_NO": 999, "REV_AT_EPOCH": 56450, "BSTAR": 0.00038722, "MEAN_MOTION_DOT": 9.5e-05, "MEAN_MOTION_DDOT": 0}, "tle": {"line1": "1 41026U 15064A   25361.53813670  .00009500  00000+0  38722-3 0  9997", "line2": "2 41026  97.2813 138.9152 0012625  79.1478 281.1180 15.24591011564506"}}, "geometry": {"type": "Point", "coordinates": [153.03955538413973, -61.83539523136486]}}, {"type": "Feature", "properties": {"norad_id": 41038, "name": "YAOGAN-29", "group": "resource", "lat": -63.41765699429744, "lon": 41.44184029271239, "alt_km": 627.9160913116993, "timestamp": "2025-12-27T20:30:58.944746+00:00", "meta": {"OBJECT_NAME": "YAOGAN-29", "OBJECT_ID": "2015-069A", "EPOCH": "2025-12-27T12:42:36.034272", "MEAN_MOTION": 14.82898379, "ECCENTRICITY": 9.94e-05, "INCLINATION": 98.0209, "RA_OF_ASC_NODE": 24.7477, "ARG_OF_PERICENTER": 157.714, "MEAN_ANOMALY": 202.4117, "EPHEMERIS_TYPE": 0, "CLASSIFICATION_TYPE": "U", "NORAD_CAT_ID": 41038, "ELEMENT_SET_NO": 999, "REV_AT_EPOCH": 54518, "BSTAR": 4.3343e-05, "MEAN_MOTION_DOT": 2.97e-06, "MEAN_MOTION_DDOT": 0}, "tle": {"line1": "1 41038U 15069A   25361.52958373  .00000297  00000+0  43343-4 0  9994", "line2": "2 41038  98.0209  24.7477 0000994 157.7140 202.4117 14.82898379545183"}}, "geometry": {"type": "Point", "coordinates": [41.44184029271239, -63.41765699429744]}}, {"type": "Feature", "properties": {"norad_id": 41167, "name": "KENT RIDGE 1", "group": "resource", "lat": 7.737048680976745, "lon": 129.51431302872078, "alt_km": 492.7457380726855, "timestamp": "2025-12-27T20:30:58.944756+00:00", "meta": {"OBJECT_NAME": "KENT RIDGE 1", "OBJECT_ID": "2015-077B", "EPOCH": "2025-12-27T12:30:49.811904", "MEAN_MOTION": 15.21749298, "ECCENTRICITY": 0.0008544, "INCLINATION": 14.9792, "RA_OF_ASC_NODE": 101.4456, "ARG_OF_PERICENTER": 339.4208, "MEAN_ANOMALY": 20.5769, "EPHEMERIS_TYPE": 0, "CLASSIFICATION_TYPE": "U", "NORAD_CAT_ID": 41167, "ELEMENT_SET_NO": 999, "REV_AT_EPOCH": 55489, "BSTAR": 0.000192, "MEAN_MOTION_DOT": 5.243e-05, "MEAN_MOTION_DDOT": 0}, "tle": {"line1": "1 41167U 15077B   25361.52140986  .00005243  00000+0  19200-3 0  9999", "line2": "2 41167  14.9792 101.4456 0008544 339.4208  20.5769 15.21749298554892"}}, "geometry": {"type": "Point", "coordinates": [129.51431302872078, 7.737048680976745]}}, {"type": "Feature", "properties": {"norad_id": 41194, "name": "GAOFEN-4", "group": "resource", "lat": 0.20162475733606794, "lon": 149.9892918360942, "alt_km": 35776.41619713443, "timestamp": "2025-12-27T20:30:58.944769+00:00", "meta": {"OBJECT_NAME": "GAOFEN-4", "OBJECT_ID": "2015-083A", "EPOCH": "2025-12-27T11:47:34.763712", "MEAN_MOTION": 1.0026861, "ECCENTRICITY": 0.0002827, "INCLINATION": 0.2056, "RA_OF_ASC_NODE": 82.0736, "ARG_OF_PERICENTER": 94.927, "MEAN_ANOMALY": 201.8058, "EPHEMERIS_TYPE": 0, "CLASSIFICATION_TYPE": "U", "NORAD_CAT_ID": 41194, "ELEMENT_SET_NO": 999, "REV_AT_EPOCH": 3680, "BSTAR": 0, "MEAN_MOTION_DOT": -3.12e-06, "MEAN_MOTION_DDOT": 0}, "tle": {"line1": "1 41194U 15083A   25361.49137458 -.00000312  00000+0  00000+0 0  9999", "line2": "2 41194   0.2056  82.0736 0002827  94.9270 201.8058  1.00268610 36805"}}, "geometry": {"type": "Point", "coordinates": [149.9892918360942, 0.20162475733606794]}}, {"type": "Feature", "properties": {"norad_id": 41240, "name": "JASON-3", "group": "resource", "lat": 9.121654049390202, "lon": -58.047164086974085, "alt_km": 1312.7485541752176, "timestamp": "2025-12-27T20:30:58.944779+00:00", "meta": {"OBJECT_NAME": "JASON-3", "OBJECT_ID": "2016-002A", "EPOCH": "2025-12-27T12:10:47.764128", "MEAN_MOTION": 12.87627225, "ECCENTRICITY": 0.0007343, "INCLINATION": 66.0409, "RA_OF_ASC_NODE": 126.7767, "ARG_OF_PERICENTER": 271.7019, "MEAN_ANOMALY": 88.3158, "EPHEMERIS_TYPE": 0, "CLASSIFICATION_TYPE": "U", "NORAD_CAT_ID": 41240, "ELEMENT_SET_NO": 999, "REV_AT_EPOCH": 46514, "BSTAR": 0.0001643, "MEAN_MOTION_DOT": -2.1e-07, "MEAN_MOTION_DDOT": 0}, "tle": {"line1": "1 41240U 16002A   25361.50749727 -.00000021  00000+0  16430-3 0  9998", "line2": "2 41240  66.0409 126.7767 0007343 271.7019  88.3158 12.87627225465143"}}, "geometry": {"type": "Point", "coordinates": [-58.047164086974085, 9.121654049390202]}}, {"type": "Feature", "properties": {"norad_id": 41335, "name": "SENTINEL-3A", "group": "resource", "lat": -3.988128045838434, "lon": -113.95044300876478, "alt_km": 806.0546301011827, "timestamp": "2025-12-27T20:30:58.944790+00:00", "meta": {"OBJECT_NAME": "SENTINEL-3A", "OBJECT_ID": "2016-011A", "EPOCH": "2025-12-27T11:14:29.652000", "MEAN_MOTION": 14.26736393, "ECCENTRICITY": 8.93e-05, "INCLINATION": 98.6295, "RA_OF_ASC_NODE": 66.2752, "ARG_OF_PERICENTER": 98.3614, "MEAN_ANOMALY": 261.7668, "EPHEMERIS_TYPE": 0, "CLASSIFICATION_TYPE": "U", "NORAD_CAT_ID": 41335, "ELEMENT_SET_NO": 999, "REV_AT_EPOCH": 51357, "BSTAR": 7.9716e-05, "MEAN_MOTION_DOT": 1.49e-06, "MEAN_MOTION_DDOT": 0}, "tle": {"line1": "1 41335U 16011A   25361.46839875  .00000149  00000+0  79716-4 0  9999", "line2": "2 41335  98.6295  66.2752 0000893  98.3614 261.7668 14.26736393513577"}}, "geometry": {"type": "Point", "coordinates": [-113.95044300876478, -3.988128045838434]}}]}